[{"OBJECT_NAME":"TOMORROW-S1","OBJECT_ID":"2024-149M","EPOCH":"2026-03-09T17:23:34.533600","MEAN_MOTION":15.31198363,"ECCENTRICITY":0.00018188,"INCLINATION":97.3791,"RA_OF_ASC_NODE":149.6044,"ARG_OF_PERICENTER":207.204,"MEAN_ANOMALY":152.9106,"EPHEMERIS_TYPE":0,"CLASSIFICATION_TYPE":"U","NORAD_CAT_ID":60479,"ELEMENT_SET_NO":999,"REV_AT_EPOCH":8686,"BSTAR":0.0002885603,"MEAN_MOTION_DOT":8.62e-5,"MEAN_MOTION_DDOT":0},{"OBJECT_NAME":"STARLINK-32793","OBJECT_ID":"2025-022W","EPOCH":"2026-03-09T11:06:33.156864","MEAN_MOTION":15.3018261,"ECCENTRICITY":0.00013197,"INCLINATION":53.158,"RA_OF_ASC_NODE":130.8017,"ARG_OF_PERICENTER":72.4699,"MEAN_ANOMALY":287.6446,"EPHEMERIS_TYPE":0,"CLASSIFICATION_TYPE":"U","NORAD_CAT_ID":62874,"ELEMENT_SET_NO":999,"REV_AT_EPOCH":6186,"BSTAR":0.001221378,"MEAN_MOTION_DOT":0.0003597,"MEAN_MOTION_DDOT":0}]
